NORAD_CAT_ID,OBJECT_NAME,OBJECT_TYPE,EPOCH,MEAN_MOTION,ECCENTRICITY,INCLINATION,RA_OF_ASC_NODE,ARG_OF_PERICENTER,MEAN_ANOMALY,BSTAR,MEAN_MOTION_DOT,MEAN_MOTION_DDOT,TLE_LINE0,TLE_LINE1,TLE_LINE2,SEMIMAJOR_AXIS,PERIOD,APOGEE,PERIGEE,DECAYED
52577.0,STARLINK-3836,PAYLOAD,2023-01-23 22:38:24,15.08873276,0.000159,53.2148,215.1393,95.0796,265.0377,-0.00042215,-7.006e-05,0.0,0 STARLINK-3836,1 52577U 22051AT  23023.94333772 -.00007006  00000-0 -42215-3 0  9996,2 52577  53.2148 215.1393 0001590  95.0796 265.0377 15.08873276 39230,6917.779,95.435,540.744,538.544,0.0
52577.0,STARLINK-3836,PAYLOAD,2023-01-24 12:56:54,15.0883652,0.000153,53.2144,212.4633,84.5831,275.5335,9.6608e-05,1.25e-05,0.0,0 STARLINK-3836,1 52577U 22051AT  23024.53951494  .00001250  00000-0  96608-4 0  9998,2 52577  53.2144 212.4633 0001530  84.5831 275.5335 15.08836520 39321,6917.891,95.438,540.814,538.698,0.0
52577.0,STARLINK-3836,PAYLOAD,2023-01-25 12:47:41,15.08834806,0.0001484,53.2147,208.0029,88.1102,272.006,3.2083000000000004e-05,2.23e-06,0.0,0 STARLINK-3836,1 52577U 22051AT  23025.53311865  .00000223  00000-0  32083-4 0  9997,2 52577  53.2147 208.0029 0001484  88.1102 272.0060 15.08834806 39404,6917.896,95.438,540.788,538.735,0.0
52577.0,STARLINK-3836,PAYLOAD,2023-01-25 19:09:13,15.0883757,0.0001582,53.2149,206.8138,89.8344,270.2829,4.2974e-05,3.96e-06,0.0,0 STARLINK-3836,1 52577U 22051AT  23025.79807706  .00000396  00000-0  42974-4 0  9990,2 52577  53.2149 206.8138 0001582  89.8344 270.2829 15.08837570 39514,6917.888000000001,95.438,540.847,538.658,0.0
52577.0,STARLINK-3836,PAYLOAD,2023-01-26 12:38:28,15.08838433,0.0001424,53.2149,203.5416,88.9747,271.1408,6.3878e-05,7.29e-06,0.0,0 STARLINK-3836,1 52577U 22051AT  23026.52671659  .00000729  00000-0  63878-4 0  9994,2 52577  53.2149 203.5416 0001424  88.9747 271.1408 15.08838433 39555,6917.885,95.438,540.735,538.765,0.0
52577.0,STARLINK-3836,PAYLOAD,2023-01-27 04:32:19,15.08839548,0.0001424,53.2152,200.5678,88.0031,272.1124,5.3651000000000005e-05,5.66e-06,0.0,0 STARLINK-3836,1 52577U 22051AT  23027.18911556  .00000566  00000-0  53651-4 0  9997,2 52577  53.2152 200.5678 0001424  88.0031 272.1124 15.08839548 39726,6917.882,95.438,540.732,538.762,0.0
52577.0,STARLINK-3836,PAYLOAD,2023-01-27 12:29:15,15.088336800000002,0.0001462,53.2151,199.0809,90.6335,269.4825,5.7903e-05,6.34e-06,0.0,0 STARLINK-3836,1 52577U 22051AT  23027.52032032  .00000634  00000-0  57903-4 0  9998,2 52577  53.2151 199.0809 0001462  90.6335 269.4825 15.08833680 39707,6917.9,95.438,540.776,538.753,0.0
52577.0,STARLINK-3836,PAYLOAD,2023-01-27 18:50:48,15.08837531,0.0001431,53.2155,197.8915,89.3613,270.7544,4.405e-05,4.13e-06,0.0,0 STARLINK-3836,1 52577U 22051AT  23027.78527889  .00000413  00000-0  44050-4 0  9999,2 52577  53.2155 197.8915 0001431  89.3613 270.7544 15.08837531 39741,6917.888000000001,95.438,540.743,538.763,0.0
52577.0,STARLINK-3836,PAYLOAD,2023-01-28 10:44:39,15.08836944,0.0001427,53.2156,194.9176,86.0666,274.0489,4.9346e-05,4.97e-06,0.0,0 STARLINK-3836,1 52577U 22051AT  23028.44768003  .00000497  00000-0  49346-4 0  9993,2 52577  53.2156 194.9176 0001427  86.0666 274.0489 15.08836944 39917,6917.89,95.438,540.742,538.768,0.0
52577.0,STARLINK-3836,PAYLOAD,2023-01-28 20:16:58,15.08843132,0.0001336,53.2153,193.1333,85.3421,274.7724,3.8454e-05,3.24e-06,0.0,0 STARLINK-3836,1 52577U 22051AT  23028.84511584  .00000324  00000-0  38454-4 0  9994,2 52577  53.2153 193.1333 0001336  85.3421 274.7724 15.08843132 39905,6917.871,95.437,540.66,538.812,0.0
52577.0,STARLINK-3836,PAYLOAD,2023-01-29 20:07:45,15.08840699,0.0001289,53.2151,188.673,84.5545,275.5594,6.4358e-05,7.37e-06,0.0,0 STARLINK-3836,1 52577U 22051AT  23029.83871659  .00000737  00000-0  64358-4 0  9996,2 52577  53.2151 188.6730 0001289  84.5545 275.5594 15.08840699 40123,6917.878,95.438,540.635,538.852,0.0
52577.0,STARLINK-3836,PAYLOAD,2023-01-30 10:26:13,15.08829291,0.0001261,53.2146,185.9965,88.8065,271.3072,9.7313e-05,1.261e-05,0.0,0 STARLINK-3836,1 52577U 22051AT  23030.43488298  .00001261  00000-0  97313-4 0  9997,2 52577  53.2146 185.9965 0001261  88.8065 271.3072 15.08829291 40143,6917.913,95.438,540.65,538.906,0.0
52577.0,STARLINK-3836,PAYLOAD,2023-01-31 10:17:00,15.08839337,0.0001322,53.2142,181.5357,91.5874,268.527,3.0728e-05,2.01e-06,0.0,0 STARLINK-3836,1 52577U 22051AT  23031.42847924  .00000201  00000-0  30728-4 0  9992,2 52577  53.2142 181.5357 0001322  91.5874 268.5270 15.08839337 40367,6917.882,95.438,540.662,538.833,0.0
52577.0,STARLINK-3836,PAYLOAD,2023-02-01 11:43:10,15.08836178,0.0001297,53.2148,176.778,100.2965,259.8173,1.4224e-05,-6.2e-07,0.0,0 STARLINK-3836,1 52577U 22051AT  23032.48832175 -.00000062  00000-0  14224-4 0  9990,2 52577  53.2148 176.7780 0001297 100.2965 259.8173 15.08836178 40522,6917.892,95.438,540.654,538.86,0.0
52577.0,STARLINK-3836,PAYLOAD,2023-02-01 13:18:34,15.08836209,0.0001187,53.2152,176.4811,100.121,259.9916,2.3868e-05,9.2e-07,0.0,0 STARLINK-3836,1 52577U 22051AT  23032.55456139  .00000092  00000-0  23868-4 0  9996,2 52577  53.2152 176.4811 0001187 100.1210 259.9916 15.08836209 40463,6917.892,95.438,540.578,538.936,0.0
52577.0,STARLINK-3836,PAYLOAD,2023-02-02 13:09:21,15.08838257,0.0001123,53.2156,172.021,101.0618,259.0501,9.6311e-06,-1.35e-06,0.0,0 STARLINK-3836,1 52577U 22051AT  23033.54816216 -.00000135  00000-0  96311-5 0  9995,2 52577  53.2156 172.0210 0001123 101.0618 259.0501 15.08838257 40617,6917.886,95.438,540.528,538.974,0.0
52577.0,STARLINK-3836,PAYLOAD,2023-02-02 17:55:30,15.08840653,0.0001005,53.216,171.1299,92.3602,267.7505,2.3009e-05,7.8e-07,0.0,0 STARLINK-3836,1 52577U 22051AT  23033.74688054  .00000078  00000-0  23009-4 0  9992,2 52577  53.2160 171.1299 0001005  92.3602 267.7505 15.08840653 40717,6917.878,95.438,540.439,539.048,0.0
52577.0,STARLINK-3836,PAYLOAD,2023-02-03 01:52:26,15.08833375,0.0001144,53.2158,169.642,95.4279,264.6844,1.019e-05,-1.26e-06,0.0,0 STARLINK-3836,1 52577U 22051AT  23034.07808635 -.00000126  00000-0  10190-4 0  9990,2 52577  53.2158 169.6420 0001144  95.4279 264.6844 15.08833375 40760,6917.901,95.438,540.557,538.974,0.0
52577.0,STARLINK-3836,PAYLOAD,2023-02-03 09:49:22,15.08829335,0.0001094,53.2159,168.1552,98.0383,262.0733,2.3933e-05,9.3e-07,0.0,0 STARLINK-3836,1 52577U 22051AT  23034.40928986  .00000093  00000-0  23933-4 0  9990,2 52577  53.2159 168.1552 0001094  98.0383 262.0733 15.08829335 40748,6917.913,95.438,540.535,539.021,0.0
52577.0,STARLINK-3836,PAYLOAD,2023-02-03 19:21:41,15.08838075,0.000118,53.215,166.3697,92.4606,267.6521,4.0437e-05,3.56e-06,0.0,0 STARLINK-3836,1 52577U 22051AT  23034.80672536  .00000356  00000-0  40437-4 0  9991,2 52577  53.2150 166.3697 0001180  92.4606 267.6521 15.08838075 40805,6917.886,95.438,540.568,538.935,0.0
52577.0,STARLINK-3836,PAYLOAD,2023-02-04 08:04:46,15.08839799,0.0001023,53.2141,163.9901,91.8496,268.2613,4.5565e-05,4.37e-06,0.0,0 STARLINK-3836,1 52577U 22051AT  23035.33664528  .00000437  00000-0  45565-4 0  9999,2 52577  53.2141 163.9901 0001023  91.8496 268.2613 15.08839799 40951,6917.881,95.438,540.454,539.038,0.0
52577.0,STARLINK-3836,PAYLOAD,2023-02-04 14:26:18,15.08845623,9.15e-05,53.2146,162.801,93.2456,266.864,8.6481e-05,1.089e-05,0.0,0 STARLINK-3836,1 52577U 22051AT  23035.60159976  .00001089  00000-0  86481-4 0  9991,2 52577  53.2146 162.8010 0000915  93.2456 266.8640 15.08845623 40920,6917.863,95.437,540.361,539.095,0.0
52577.0,STARLINK-3836,PAYLOAD,2023-02-04 17:37:04,15.08848341,9.69e-05,53.2149,162.2064,94.0699,266.0403,0.00011844,1.598e-05,0.0,0 STARLINK-3836,1 52577U 22051AT  23035.73407702  .00001598  00000-0  11844-3 0  9993,2 52577  53.2149 162.2064 0000969  94.0699 266.0403 15.08848341 41013,6917.855,95.437,540.39,539.05,0.0
52577.0,STARLINK-3836,PAYLOAD,2023-02-05 14:17:05,15.0883939,9.64e-05,53.2148,158.3405,97.7699,262.3402,2.9396e-05,1.8e-06,0.0,0 STARLINK-3836,1 52577U 22051AT  23036.59520706  .00000180  00000-0  29396-4 0  9996,2 52577  53.2148 158.3405 0000964  97.7699 262.3402 15.08839390 41148,6917.882,95.438,540.414,539.08,0.0
52577.0,STARLINK-3836,PAYLOAD,2023-02-05 17:27:52,15.08841508,9.42e-05,53.2152,157.7463,92.3106,267.7994,4.3687e-05,4.08e-06,0.0,0 STARLINK-3836,1 52577U 22051AT  23036.72768555  .00000408  00000-0  43687-4 0  9999,2 52577  53.2152 157.7463 0000942  92.3106 267.7994 15.08841508 41093,6917.876,95.437,540.392,539.089,0.0
52577.0,STARLINK-3836,PAYLOAD,2023-02-06 12:32:29,15.08846127,0.000108,53.2149,154.1783,94.5024,265.6091,8.6873e-05,1.095e-05,0.0,0 STARLINK-3836,1 52577U 22051AT  23037.52256190  .00001095  00000-0  86873-4 0  9992,2 52577  53.2149 154.1783 0001080  94.5024 265.6091 15.08846127 41213,6917.862,95.437,540.474,538.98,0.0
52577.0,STARLINK-3836,PAYLOAD,2023-02-06 17:18:38,15.08857651,0.000144,53.2149,153.2841,115.4749,244.6392,6.2432e-05,7.06e-06,0.0,0 STARLINK-3836,1 52577U 22051AT  23037.72127348  .00000706  00000-0  62432-4 0  9999,2 52577  53.2149 153.2841 0001440 115.4749 244.6392 15.08857651 41311,6917.826,95.436,540.688,538.695,0.0
52577.0,STARLINK-3836,PAYLOAD,2023-02-07 13:58:38,15.08850675,0.0001358,53.2146,149.4185,118.4749,241.638,0.00013358,1.839e-05,0.0,0 STARLINK-3836,1 52577U 22051AT  23038.58239421  .00001839  00000-0  13358-3 0  9990,2 52577  53.2146 149.4185 0001358 118.4749 241.6380 15.08850675 41444,6917.848,95.437,540.652,538.773,0.0
52577.0,STARLINK-3836,PAYLOAD,2023-02-07 17:09:24,15.08859513,0.0001229,53.2156,148.824,113.1102,247.0019,0.00019355,2.795e-05,0.0,0 STARLINK-3836,1 52577U 22051AT  23038.71486680  .00002795  00000-0  19355-3 0  9991,2 52577  53.2156 148.8240 0001229 113.1102 247.0019 15.08859513 41463,6917.821,95.436,540.536,538.836,0.0
52577.0,STARLINK-3836,PAYLOAD,2023-02-08 07:27:53,15.08849764,0.0001783,53.2139,146.1474,110.5766,249.5417,7.1894e-05,8.57e-06,0.0,0 STARLINK-3836,1 52577U 22051AT  23039.31103455  .00000857  00000-0  71894-4 0  9998,2 52577  53.2139 146.1474 0001783 110.5766 249.5417 15.08849764 41552,6917.851,95.437,540.949,538.482,0.0
